[{"OBJECT_NAME":"SPAWAR-CAL-OR","OBJECT_ID":"2018-099W","EPOCH":"2026-03-09T16:14:17.483136","MEAN_MOTION":15.21464282,"ECCENTRICITY":0.00104186,"INCLINATION":97.3939,"RA_OF_ASC_NODE":118.6375,"ARG_OF_PERICENTER":310.1337,"MEAN_ANOMALY":49.8986,"EPHEMERIS_TYPE":0,"CLASSIFICATION_TYPE":"U","NORAD_CAT_ID":43778,"ELEMENT_SET_NO":999,"REV_AT_EPOCH":39751,"BSTAR":0.00050868189,"MEAN_MOTION_DOT":0.00011389,"MEAN_MOTION_DDOT":0},{"OBJECT_NAME":"KONDOR-FKA NO. 1","OBJECT_ID":"2023-074A","EPOCH":"2026-03-07T10:13:03.575712","MEAN_MOTION":15.19772289,"ECCENTRICITY":0.00017305,"INCLINATION":97.4394,"RA_OF_ASC_NODE":262.4533,"ARG_OF_PERICENTER":84.6258,"MEAN_ANOMALY":275.5174,"EPHEMERIS_TYPE":0,"CLASSIFICATION_TYPE":"U","NORAD_CAT_ID":56756,"ELEMENT_SET_NO":999,"REV_AT_EPOCH":15423,"BSTAR":0.0003518818,"MEAN_MOTION_DOT":7.463e-5,"MEAN_MOTION_DDOT":0}]
